{"type": "FeatureCollection", "features": [ {"type": "Feature", "properties": {"norad_id": 38953, "name": "BEIDOU-2 G6 (C02)", "group": "beidou", "lat": 2.685543458466736, "lon": 117.91086718425098, "alt_km": 35798.87036994541, "timestamp": "2025-12-14T20:40:32.036561+00:00", "meta": {"OBJECT_NAME": "BEIDOU-2 G6 (C02)", "OBJECT_ID": "2012-059A", "EPOCH": "2025-12-13T20:41:54.109248", "MEAN_MOTION": 1.00269673, "ECCENTRICITY": 0.00079036, "INCLINATION": 3.9524, "RA_OF_ASC_NODE": 75.4959, "ARG_OF_PERICENTER": 290.1643, "MEAN_ANOMALY": 111.6061, "EPHEMERIS_TYPE": 0, "CLASSIFICATION_TYPE": "U", "NORAD_CAT_ID": 38953, "ELEMENT_SET_NO": 999, "REV_AT_EPOCH": 4805, "BSTAR": 0, "MEAN_MOTION_DOT": -1.6e-06, "MEAN_MOTION_DDOT": 0}, "tle": {"line1": "1 38953U 12059A   25347.86243182 -.00000160  00000+0  00000+0 0  9996", "line2": "2 38953   3.9524  75.4959 0007903 290.1643 111.6061  1.00269673 48053"}}, "geometry": {"type": "Point", "coordinates": [117.91086718425098, 2.685543458466736]}}, {"type": "Feature", "properties": {"norad_id": 40549, "name": "BEIDOU-3S IGSO-1S (C31)", "group": "beidou", "lat": -7.916716704414038, "lon": 124.45011469075364, "alt_km": 35626.99195483496, "timestamp": "2025-12-14T20:40:32.036572+00:00", "meta": {"OBJECT_NAME": "BEIDOU-3S IGSO-1S (C31)", "OBJECT_ID": "2015-019A", "EPOCH": "2025-12-11T20:45:03.352032", "MEAN_MOTION": 1.00292963, "ECCENTRICITY": 0.0036964, "INCLINATION": 49.5542, "RA_OF_ASC_NODE": 297.7211, "ARG_OF_PERICENTER": 195.3449, "MEAN_ANOMALY": 352.9961, "EPHEMERIS_TYPE": 0, "CLASSIFICATION_TYPE": "U", "NORAD_CAT_ID": 40549, "ELEMENT_SET_NO": 999, "REV_AT_EPOCH": 3919, "BSTAR": 0, "MEAN_MOTION_DOT": -1.91e-06, "MEAN_MOTION_DDOT": 0}, "tle": {"line1": "1 40549U 15019A   25345.86462213 -.00000191  00000+0  00000+0 0  9999", "line2": "2 40549  49.5542 297.7211 0036964 195.3449 352.9961  1.00292963 39194"}}, "geometry": {"type": "Point", "coordinates": [124.45011469075364, -7.916716704414038]}}, {"type": "Feature", "properties": {"norad_id": 40748, "name": "BEIDOU-3S M2S (C58)", "group": "beidou", "lat": 10.695356252674722, "lon": 120.78176654243762, "alt_km": 21533.70298106781, "timestamp": "2025-12-14T20:40:32.036584+00:00", "meta": {"OBJECT_NAME": "BEIDOU-3S M2S (C58)", "OBJECT_ID": "2015-037A", "EPOCH": "2025-12-11T22:15:26.437248", "MEAN_MOTION": 1.8622897, "ECCENTRICITY": 0.00123447, "INCLINATION": 55.0397, "RA_OF_ASC_NODE": 308.4912, "ARG_OF_PERICENTER": 267.8245, "MEAN_ANOMALY": 92.025, "EPHEMERIS_TYPE": 0, "CLASSIFICATION_TYPE": "U", "NORAD_CAT_ID": 40748, "ELEMENT_SET_NO": 999, "REV_AT_EPOCH": 7063, "BSTAR": 0, "MEAN_MOTION_DOT": -8.9e-07, "MEAN_MOTION_DDOT": 0}, "tle": {"line1": "1 40748U 15037A   25345.92738932 -.00000089  00000+0  00000+0 0  9997", "line2": "2 40748  55.0397 308.4912 0012344 267.8245  92.0250  1.86228970 70636"}}, "geometry": {"type": "Point", "coordinates": [120.78176654243762, 10.695356252674722]}}, {"type": "Feature", "properties": {"norad_id": 40749, "name": "BEIDOU-3S M1S (C57)", "group": "beidou", "lat": 10.637074240913416, "lon": -44.09200799439975, "alt_km": 21515.3641779001, "timestamp": "2025-12-14T20:40:32.036596+00:00", "meta": {"OBJECT_NAME": "BEIDOU-3S M1S (C57)", "OBJECT_ID": "2015-037B", "EPOCH": "2025-12-11T14:53:54.000096", "MEAN_MOTION": 1.86253918, "ECCENTRICITY": 0.00034406, "INCLINATION": 55.0364, "RA_OF_ASC_NODE": 308.4915, "ARG_OF_PERICENTER": 358.1692, "MEAN_ANOMALY": 1.8205, "EPHEMERIS_TYPE": 0, "CLASSIFICATION_TYPE": "U", "NORAD_CAT_ID": 40749, "ELEMENT_SET_NO": 999, "REV_AT_EPOCH": 7063, "BSTAR": 0, "MEAN_MOTION_DOT": -8.8e-07, "MEAN_MOTION_DDOT": 0}, "tle": {"line1": "1 40749U 15037B   25345.62076389 -.00000088  00000+0  00000+0 0  9995", "line2": "2 40749  55.0364 308.4915 0003440 358.1692   1.8205  1.86253918 70639"}}, "geometry": {"type": "Point", "coordinates": [-44.09200799439975, 10.637074240913416]}}, {"type": "Feature", "properties": {"norad_id": 40938, "name": "BEIDOU-3S IGSO-2S (C56)", "group": "beidou", "lat": -35.26094716148966, "lon": 118.03545571978816, "alt_km": 35595.6980668889, "timestamp": "2025-12-14T20:40:32.036608+00:00", "meta": {"OBJECT_NAME": "BEIDOU-3S IGSO-2S (C56)", "OBJECT_ID": "2015-053A", "EPOCH": "2025-12-13T17:20:05.936352", "MEAN_MOTION": 1.00270015, "ECCENTRICITY": 0.00607751, "INCLINATION": 49.509, "RA_OF_ASC_NODE": 260.9931, "ARG_OF_PERICENTER": 188.8137, "MEAN_ANOMALY": 348.8662, "EPHEMERIS_TYPE": 0, "CLASSIFICATION_TYPE": "U", "NORAD_CAT_ID": 40938, "ELEMENT_SET_NO": 999, "REV_AT_EPOCH": 3749, "BSTAR": 0, "MEAN_MOTION_DOT": -1.56e-06, "MEAN_MOTION_DDOT": 0}, "tle": {"line1": "1 40938U 15053A   25347.72229093 -.00000156  00000+0  00000+0 0  9994", "line2": "2 40938  49.5090 260.9931 0060775 188.8137 348.8662  1.00270015 37490"}}, "geometry": {"type": "Point", "coordinates": [118.03545571978816, -35.26094716148966]}}, {"type": "Feature", "properties": {"norad_id": 41434, "name": "BEIDOU-2 IGSO-6 (C13)", "group": "beidou", "lat": 59.81557689141685, "lon": 123.21630290341758, "alt_km": 35980.27136286116, "timestamp": "2025-12-14T20:40:32.036619+00:00", "meta": {"OBJECT_NAME": "BEIDOU-2 IGSO-6 (C13)", "OBJECT_ID": "2016-021A", "EPOCH": "2025-12-11T15:29:12.615360", "MEAN_MOTION": 1.00293077, "ECCENTRICITY": 0.00608616, "INCLINATION": 59.9644, "RA_OF_ASC_NODE": 39.9082, "ARG_OF_PERICENTER": 229.9753, "MEAN_ANOMALY": 135.9177, "EPHEMERIS_TYPE": 0, "CLASSIFICATION_TYPE": "U", "NORAD_CAT_ID": 41434, "ELEMENT_SET_NO": 999, "REV_AT_EPOCH": 3560, "BSTAR": 0, "MEAN_MOTION_DOT": -1.62e-06, "MEAN_MOTION_DDOT": 0}, "tle": {"line1": "1 41434U 16021A   25345.64528490 -.00000162  00000+0  00000+0 0  9991", "line2": "2 41434  59.9644  39.9082 0060861 229.9753 135.9177  1.00293077 35600"}}, "geometry": {"type": "Point", "coordinates": [123.21630290341758, 59.81557689141685]}}, {"type": "Feature", "properties": {"norad_id": 41586, "name": "BEIDOU-2 G7 (C03)", "group": "beidou", "lat": 1.7190193400136526, "lon": 144.33056978219656, "alt_km": 35783.35158274522, "timestamp": "2025-12-14T20:40:32.036631+00:00", "meta": {"OBJECT_NAME": "BEIDOU-2 G7 (C03)", "OBJECT_ID": "2016-037A", "EPOCH": "2025-12-13T15:41:15.400608", "MEAN_MOTION": 1.00266893, "ECCENTRICITY": 0.00045907, "INCLINATION": 1.7596, "RA_OF_ASC_NODE": 67.775, "ARG_OF_PERICENTER": 358.4711, "MEAN_ANOMALY": 2.0592, "EPHEMERIS_TYPE": 0, "CLASSIFICATION_TYPE": "U", "NORAD_CAT_ID": 41586, "ELEMENT_SET_NO": 999, "REV_AT_EPOCH": 502, "BSTAR": 0, "MEAN_MOTION_DOT": -3.38e-06, "MEAN_MOTION_DDOT": 0}, "tle": {"line1": "1 41586U 16037A   25347.65365047 -.00000338  00000+0  00000+0 0  9991", "line2": "2 41586   1.7596  67.7750 0004590 358.4711   2.0592  1.00266893  5023"}}, "geometry": {"type": "Point", "coordinates": [144.33056978219656, 1.7190193400136526]}}, {"type": "Feature", "properties": {"norad_id": 43001, "name": "BEIDOU-3 M1 (C19)", "group": "beidou", "lat": -48.80244251333044, "lon": 20.170920855935616, "alt_km": 21507.979915454067, "timestamp": "2025-12-14T20:40:32.036643+00:00", "meta": {"OBJECT_NAME": "BEIDOU-3 M1 (C19)", "OBJECT_ID": "2017-069A", "EPOCH": "2025-12-13T08:19:00.908256", "MEAN_MOTION": 1.86231197, "ECCENTRICITY": 0.00092543, "INCLINATION": 56.5278, "RA_OF_ASC_NODE": 69.2133, "ARG_OF_PERICENTER": 303.3207, "MEAN_ANOMALY": 56.6091, "EPHEMERIS_TYPE": 0, "CLASSIFICATION_TYPE": "U", "NORAD_CAT_ID": 43001, "ELEMENT_SET_NO": 999, "REV_AT_EPOCH": 5514, "BSTAR": 0, "MEAN_MOTION_DOT": -7.8e-07, "MEAN_MOTION_DDOT": 0}, "tle": {"line1": "1 43001U 17069A   25347.34653829 -.00000078  00000+0  00000+0 0  9996", "line2": "2 43001  56.5278  69.2133 0009254 303.3207  56.6091  1.86231197 55145"}}, "geometry": {"type": "Point", "coordinates": [20.170920855935616, -48.80244251333044]}}, {"type": "Feature", "properties": {"norad_id": 43002, "name": "BEIDOU-3 M2 (C20)", "group": "beidou", "lat": -19.04221289847711, "lon": 56.02619083025787, "alt_km": 21513.079785647653, "timestamp": "2025-12-14T20:40:32.036664+00:00", "meta": {"OBJECT_NAME": "BEIDOU-3 M2 (C20)", "OBJECT_ID": "2017-069B", "EPOCH": "2025-12-12T17:57:03.193632", "MEAN_MOTION": 1.86230645, "ECCENTRICITY": 0.00063664, "INCLINATION": 56.5266, "RA_OF_ASC_NODE": 69.2696, "ARG_OF_PERICENTER": 331.453, "MEAN_ANOMALY": 28.5312, "EPHEMERIS_TYPE": 0, "CLASSIFICATION_TYPE": "U", "NORAD_CAT_ID": 43002, "ELEMENT_SET_NO": 999, "REV_AT_EPOCH": 5512, "BSTAR": 0, "MEAN_MOTION_DOT": -7.4e-07, "MEAN_MOTION_DDOT": 0}, "tle": {"line1": "1 43002U 17069B   25346.74795363 -.00000074  00000+0  00000+0 0  9996", "line2": "2 43002  56.5266  69.2696 0006366 331.4530  28.5312  1.86230645 55128"}}, "geometry": {"type": "Point", "coordinates": [56.02619083025787, -19.04221289847711]}}, {"type": "Feature", "properties": {"norad_id": 43107, "name": "BEIDOU-3 M7 (C27)", "group": "beidou", "lat": 24.466359997332262, "lon": 109.77732823669682, "alt_km": 21523.540458506322, "timestamp": "2025-12-14T20:40:32.036691+00:00", "meta": {"OBJECT_NAME": "BEIDOU-3 M7 (C27)", "OBJECT_ID": "2018-003A", "EPOCH": "2025-12-13T13:33:25.741728", "MEAN_MOTION": 1.86232202, "ECCENTRICITY": 0.00026561, "INCLINATION": 54.4958, "RA_OF_ASC_NODE": 308.7854, "ARG_OF_PERICENTER": 70.3198, "MEAN_ANOMALY": 289.6984, "EPHEMERIS_TYPE": 0, "CLASSIFICATION_TYPE": "U", "NORAD_CAT_ID": 43107, "ELEMENT_SET_NO": 999, "REV_AT_EPOCH": 5389, "BSTAR": 0, "MEAN_MOTION_DOT": -9.8e-07, "MEAN_MOTION_DDOT": 0}, "tle": {"line1": "1 43107U 18003A   25347.56488127 -.00000098  00000+0  00000+0 0  9995", "line2": "2 43107  54.4958 308.7854 0002656  70.3198 289.6984  1.86232202 53891"}}, "geometry": {"type": "Point", "coordinates": [109.77732823669682, 24.466359997332262]}}]}